[{"OBJECT_NAME":"ZHUHAI-1 03E","OBJECT_ID":"2019-060F","EPOCH":"2026-03-09T22:00:09.912096","MEAN_MOTION":15.3740444,"ECCENTRICITY":0.00060218,"INCLINATION":97.5464,"RA_OF_ASC_NODE":215.7681,"ARG_OF_PERICENTER":27.0132,"MEAN_ANOMALY":333.1424,"EPHEMERIS_TYPE":0,"CLASSIFICATION_TYPE":"U","NORAD_CAT_ID":44539,"ELEMENT_SET_NO":999,"REV_AT_EPOCH":36049,"BSTAR":0.00065441196,"MEAN_MOTION_DOT":0.00023971,"MEAN_MOTION_DDOT":0},{"OBJECT_NAME":"TRANSPORTER-12 OBJECT CL","OBJECT_ID":"2025-009CL","EPOCH":"2026-03-09T22:02:51.160416","MEAN_MOTION":15.38834312,"ECCENTRICITY":0.00028913,"INCLINATION":97.3807,"RA_OF_ASC_NODE":152.8971,"ARG_OF_PERICENTER":194.4406,"MEAN_ANOMALY":165.6757,"EPHEMERIS_TYPE":0,"CLASSIFICATION_TYPE":"U","NORAD_CAT_ID":62691,"ELEMENT_SET_NO":999,"REV_AT_EPOCH":6389,"BSTAR":0.0010087925,"MEAN_MOTION_DOT":0.00038813,"MEAN_MOTION_DDOT":0}]
